NORAD_CAT_ID,OBJECT_NAME,OBJECT_TYPE,EPOCH,MEAN_MOTION,ECCENTRICITY,INCLINATION,RA_OF_ASC_NODE,ARG_OF_PERICENTER,MEAN_ANOMALY,BSTAR,MEAN_MOTION_DOT,MEAN_MOTION_DDOT,TLE_LINE0,TLE_LINE1,TLE_LINE2,SEMIMAJOR_AXIS,PERIOD,APOGEE,PERIGEE,DECAYED
50178.0,STARLINK-3284,PAYLOAD,2023-07-07 17:30:55,15.08854277,9.92e-05,53.2175,310.2334,89.8549,270.2556,0.0002903,4.337e-05,0.0,0 STARLINK-3284,1 50178U 21125Y   23188.72980467  .00004337  00000-0  29030-3 0  9991,2 50178  53.2175 310.2334 0000992  89.8549 270.2556 15.08854277 88779,6917.837,95.437,540.388,539.016,0.0
50178.0,STARLINK-3284,PAYLOAD,2023-07-08 01:27:51,15.08843854,0.0001069,53.2173,308.7463,73.1512,286.9597,0.00013957,1.934e-05,0.0,0 STARLINK-3284,1 50178U 21125Y   23189.06100971  .00001934  00000-0  13957-3 0  9994,2 50178  53.2173 308.7463 0001069  73.1512 286.9597 15.08843854 88828,6917.869,95.437,540.473,538.994,0.0
50178.0,STARLINK-3284,PAYLOAD,2023-07-09 01:18:38,15.08840092,5.71e-05,53.2173,304.2864,74.0867,286.0188,3.7023e-05,3.02e-06,0.0,0 STARLINK-3284,1 50178U 21125Y   23190.05461032  .00000302  00000-0  37023-4 0  9992,2 50178  53.2173 304.2864 0000571  74.0867 286.0188 15.08840092 88978,6917.88,95.438,540.14,539.35,0.0
50178.0,STARLINK-3284,PAYLOAD,2023-07-09 12:26:20,15.0883449,0.0001038,53.2174,302.2072,64.1418,295.9681,-5.7836e-06,-3.8e-06,0.0,0 STARLINK-3284,1 50178U 21125Y   23190.51829653 -.00000380  00000-0 -57836-5 0  9993,2 50178  53.2174 302.2072 0001038  64.1418 295.9681 15.08834490 89040,6917.897,95.438,540.48,539.044,0.0
50178.0,STARLINK-3284,PAYLOAD,2023-07-09 18:47:53,15.08842254,0.000103,53.218,301.0138,82.5193,277.5916,7.5092e-05,9.08e-06,0.0,0 STARLINK-3284,1 50178U 21125Y   23190.78325242  .00000908  00000-0  75092-4 0  9994,2 50178  53.2180 301.0138 0001030  82.5193 277.5916 15.08842254 89081,6917.873,95.437,540.451,539.026,0.0
50178.0,STARLINK-3284,PAYLOAD,2023-07-11 07:21:45,15.0883959,0.0001334,53.2169,294.1677,115.7321,244.3809,0.00013421,1.849e-05,0.0,0 STARLINK-3284,1 50178U 21125Y   23192.30677344  .00001849  00000-0  13421-3 0  9999,2 50178  53.2169 294.1677 0001334 115.7321 244.3809 15.08839590 89315,6917.882,95.438,540.669,538.824,0.0
50178.0,STARLINK-3284,PAYLOAD,2023-07-12 08:47:55,15.08836828,6.69e-05,53.217,289.4153,99.8921,260.2147,-9.4347e-05,-1.789e-05,0.0,0 STARLINK-3284,1 50178U 21125Y   23193.36661225 -.00001789  00000-0 -94347-4 0  9999,2 50178  53.2170 289.4153 0000669  99.8921 260.2147 15.08836828 89471,6917.89,95.438,540.218,539.292,0.0
50178.0,STARLINK-3284,PAYLOAD,2023-07-12 15:09:27,15.08850922,9.79e-05,53.2164,288.2267,82.4139,277.6964,0.00031996,4.81e-05,0.0,0 STARLINK-3284,1 50178U 21125Y   23193.63156907  .00004810  00000-0  31996-3 0  9991,2 50178  53.2164 288.2267 0000979  82.4139 277.6964 15.08850922 89515,6917.847,95.437,540.389,539.035,0.0
50178.0,STARLINK-3284,PAYLOAD,2023-07-13 15:00:15,15.08840319,0.0001083,53.2163,283.7664,87.5203,272.5913,0.00011076,1.475e-05,0.0,0 STARLINK-3284,1 50178U 21125Y   23194.62517501  .00001475  00000-0  11076-3 0  9993,2 50178  53.2163 283.7664 0001083  87.5203 272.5913 15.08840319 89663,6917.879,95.438,540.494,538.995,0.0
50178.0,STARLINK-3284,PAYLOAD,2023-07-14 11:40:17,15.08812689,0.0001496,53.2178,279.901,89.5809,270.5354,0.0010437,0.00016349,0.0,0 STARLINK-3284,1 50178U 21125Y   23195.48631434  .00016349  00000-0  10437-2 0  9995,2 50178  53.2178 279.9010 0001496  89.5809 270.5354 15.08812689 89793,6917.964,95.439,540.864,538.794,0.0
50178.0,STARLINK-3284,PAYLOAD,2023-07-14 14:51:02,15.08847675,8.25e-05,53.2183,279.3057,57.9401,302.1671,0.00015221,2.136e-05,0.0,0 STARLINK-3284,1 50178U 21125Y   23195.61877414  .00002136  00000-0  15221-3 0  9996,2 50178  53.2183 279.3057 0000825  57.9401 302.1671 15.08847675 89816,6917.857,95.437,540.293,539.151,0.0
50178.0,STARLINK-3284,PAYLOAD,2023-07-14 22:47:58,15.08839932,0.0001259,53.2179,277.8194,83.1631,276.9505,0.00016063,2.269e-05,0.0,0 STARLINK-3284,1 50178U 21125Y   23195.94997871  .00002269  00000-0  16063-3 0  9994,2 50178  53.2179 277.8194 0001259  83.1631 276.9505 15.08839932 89860,6917.881,95.438,540.617,538.875,0.0
50178.0,STARLINK-3284,PAYLOAD,2023-07-16 05:00:18,15.08835239,0.0001356,53.2182,272.1678,89.8731,270.2417,3.3719e-05,2.49e-06,0.0,0 STARLINK-3284,1 50178U 21125Y   23197.20854230  .00000249  00000-0  33719-4 0  9990,2 50178  53.2182 272.1678 0001356  89.8731 270.2417 15.08835239 90059,6917.895,95.438,540.698,538.822,0.0
50178.0,STARLINK-3284,PAYLOAD,2023-07-17 11:12:37,15.08845433,0.0001062,53.2154,266.5204,86.6235,273.4879,0.00019446,2.809e-05,0.0,0 STARLINK-3284,1 50178U 21125Y   23198.46710043  .00002809  00000-0  19446-3 0  9996,2 50178  53.2154 266.5204 0001062  86.6235 273.4879 15.08845433 90243,6917.864,95.437,540.463,538.994,0.0
50178.0,STARLINK-3284,PAYLOAD,2023-07-18 11:03:24,15.08841248,0.0001104,53.2158,262.0592,84.3993,275.7125,0.00012845,1.757e-05,0.0,0 STARLINK-3284,1 50178U 21125Y   23199.46070357  .00001757  00000-0  12845-3 0  9991,2 50178  53.2158 262.0592 0001104  84.3993 275.7125 15.08841248 90396,6917.877,95.437,540.505,538.978,0.0
50178.0,STARLINK-3284,PAYLOAD,2023-07-19 12:29:34,15.08842513,0.0001227,53.2163,257.3033,91.3211,268.7922,7.1029e-05,8.43e-06,0.0,0 STARLINK-3284,1 50178U 21125Y   23200.52054384  .00000843  00000-0  71029-4 0  9998,2 50178  53.2163 257.3033 0001227  91.3211 268.7922 15.08842513 90557,6917.873,95.437,540.587,538.889,0.0
50178.0,STARLINK-3284,PAYLOAD,2023-07-20 13:55:45,15.08845337,0.0001328,53.216,252.5443,102.6992,257.4148,4.257e-05,3.9e-06,0.0,0 STARLINK-3284,1 50178U 21125Y   23201.58038245  .00000390  00000-0  42570-4 0  9999,2 50178  53.2160 252.5443 0001328 102.6992 257.4148 15.08845337 90710,6917.864,95.437,540.648,538.81,0.0
50178.0,STARLINK-3284,PAYLOAD,2023-07-21 15:21:55,15.08841533,0.0001163,53.2152,247.7856,93.8288,266.2837,7.3422e-05,8.81e-06,0.0,0 STARLINK-3284,1 50178U 21125Y   23202.64022450  .00000881  00000-0  73422-4 0  9993,2 50178  53.2152 247.7856 0001163  93.8288 266.2837 15.08841533 90875,6917.876,95.437,540.545,538.936,0.0
50178.0,STARLINK-3284,PAYLOAD,2023-07-24 02:11:11,15.08840789,0.0001496,53.2148,236.7836,74.504,285.6117,0.00012436,1.692e-05,0.0,0 STARLINK-3284,1 50178U 21125Y   23205.09110935  .00001692  00000-0  12436-3 0  9999,2 50178  53.2148 236.7836 0001496  74.5040 285.6117 15.08840789 91775,6917.878,95.438,540.778,538.708,0.0
50178.0,STARLINK-3284,PAYLOAD,2023-07-25 13:09:40,15.08839476,0.0001222,53.2162,230.2408,88.857,271.2562,9.0575e-05,1.154e-05,0.0,0 STARLINK-3284,1 50178U 21125Y   23206.54838961  .00001154  00000-0  90575-4 0  9990,2 50178  53.2162 230.2408 0001222  88.8570 271.2562 15.08839476 91998,6917.882,95.438,540.592,538.902,0.0
50178.0,STARLINK-3284,PAYLOAD,2023-07-26 11:25:04,15.08843529,0.0001236,53.2158,226.0782,82.103,278.0102,3.8765e-05,3.29e-06,0.0,0 STARLINK-3284,1 50178U 21125Y   23207.47574801  .00000329  00000-0  38765-4 0  9999,2 50178  53.2158 226.0782 0001236  82.1030 278.0102 15.08843529 92130,6917.87,95.437,540.59,538.88,0.0
50178.0,STARLINK-3284,PAYLOAD,2023-07-27 01:43:32,15.08839553,0.0001188,53.2157,223.4016,82.7964,277.3163,9.0987e-05,1.16e-05,0.0,0 STARLINK-3284,1 50178U 21125Y   23208.07190909  .00001160  00000-0  90987-4 0  9997,2 50178  53.2157 223.4016 0001188  82.7964 277.3163 15.08839553 91699,6917.882,95.438,540.569,538.925,0.0
50178.0,STARLINK-3284,PAYLOAD,2023-07-27 12:51:14,15.08843293,0.0001211,53.2159,221.32,83.6237,276.4893,9.8216e-05,1.276e-05,0.0,0 STARLINK-3284,1 50178U 21125Y   23208.53558632  .00001276  00000-0  98216-4 0  9990,2 50178  53.2159 221.3200 0001211  83.6237 276.4893 15.08843293 92296,6917.87,95.437,540.573,538.898,0.0
50178.0,STARLINK-3284,PAYLOAD,2023-07-28 01:34:20,15.08833539,0.0001323,53.2155,218.9407,85.6534,274.4609,4.1855e-05,3.78e-06,0.0,0 STARLINK-3284,1 50178U 21125Y   23209.06551557  .00000378  00000-0  41855-4 0  9997,2 50178  53.2155 218.9407 0001323  85.6534 274.4609 15.08833539 91844,6917.9,95.438,540.68,538.85,0.0
50178.0,STARLINK-3284,PAYLOAD,2023-07-28 11:06:39,15.08836725,0.0001145,53.2158,217.1568,88.0001,272.1122,2.6879e-05,1.4e-06,0.0,0 STARLINK-3284,1 50178U 21125Y   23209.46295452  .00000140  00000-0  26879-4 0  9996,2 50178  53.2158 217.1568 0001145  88.0001 272.1122 15.08836725 92435,6917.89,95.438,540.547,538.963,0.0
50178.0,STARLINK-3284,PAYLOAD,2023-07-29 09:22:02,15.08842732,0.0001177,53.2158,212.9946,87.7426,272.3701,6.5989e-05,7.63e-06,0.0,0 STARLINK-3284,1 50178U 21125Y   23210.39031095  .00000763  00000-0  65989-4 0  9997,2 50178  53.2158 212.9946 0001177  87.7426 272.3701 15.08842732 92047,6917.872,95.437,540.551,538.923,0.0
50178.0,STARLINK-3284,PAYLOAD,2023-07-29 17:18:58,15.08856822,0.0001155,53.2159,211.5063,90.3747,269.7378,-0.00018586,-3.246e-05,0.0,0 STARLINK-3284,1 50178U 21125Y   23210.72150686 -.00003246  00000-0 -18586-3 0  9993,2 50178  53.2159 211.5063 0001155  90.3747 269.7378 15.08856822 92095,6917.829,95.436,540.493,538.895,0.0
50178.0,STARLINK-3284,PAYLOAD,2023-07-30 09:12:50,15.08839303,0.0001222,53.2162,208.5319,87.4985,272.6147,0.00010082,1.317e-05,0.0,0 STARLINK-3284,1 50178U 21125Y   23211.38391439  .00001317  00000-0  10082-3 0  9997,2 50178  53.2162 208.5319 0001222  87.4985 272.6147 15.08839303 92198,6917.883,95.438,540.593,538.902,0.0
50178.0,STARLINK-3284,PAYLOAD,2023-08-01 02:32:51,15.08840231,0.0001231,53.2158,200.8011,88.615,271.4983,7.7421e-05,9.45e-06,0.0,0 STARLINK-3284,1 50178U 21125Y   23213.10615428  .00000945  00000-0  77421-4 0  9993,2 50178  53.2158 200.8011 0001231  88.6150 271.4983 15.08840231 92450,6917.88,95.438,540.596,538.893,0.0
50178.0,STARLINK-3284,PAYLOAD,2023-08-02 08:45:11,15.08839065,0.0001323,53.2162,195.1505,97.6971,262.4171,3.3549e-05,2.46e-06,0.0,0 STARLINK-3284,1 50178U 21125Y   23214.36471622  .00000246  00000-0  33549-4 0  9995,2 50178  53.2162 195.1505 0001323  97.6971 262.4171 15.08839065 92645,6917.883,95.438,540.663,538.833,0.0
